{
  "type": "FeatureCollection",
  "features": [
    {
      "type": "Feature",
      "properties": {
        "norad_id": 32197,
        "name": "FENGYUN 1C DEB",
        "group": "fengyun-1c-debris",
        "lat": -62.397543237371416,
        "lon": 51.943177017881126,
        "alt_km": 674.9589749295083,
        "timestamp": "2025-12-06T11:28:11.348327+00:00",
        "meta_object_name": "FENGYUN 1C DEB",
        "meta_object_id": "1999-025CUT",
        "meta_epoch": "2025-12-04T12:15:54.172224",
        "meta_mean_motion": 14.32633577,
        "meta_eccentricity": 0.0161219,
        "meta_inclination": 98.9014,
        "meta_ra_of_asc_node": 247.3657,
        "meta_arg_of_pericenter": 254.1251,
        "meta_mean_anomaly": 291.3699,
        "meta_ephemeris_type": 0,
        "meta_classification_type": "U",
        "meta_norad_cat_id": 32197,
        "meta_element_set_no": 999,
        "meta_rev_at_epoch": 94305,
        "meta_bstar": 0.0010347,
        "meta_mean_motion_dot": 3.196e-05,
        "meta_mean_motion_ddot": 0,
        "tle_line1": "1 32197U 99025CUT 25338.51104366  .00003196  00000+0  10347-2 0  9999",
        "tle_line2": "2 32197  98.9014 247.3657 0161219 254.1251 291.3699 14.32633577943050"
      },
      "geometry": {
        "type": "Point",
        "coordinates": [
          51.943177017881126,
          -62.397543237371416
        ]
      }
    },
    {
      "type": "Feature",
      "properties": {
        "norad_id": 32198,
        "name": "FENGYUN 1C DEB",
        "group": "fengyun-1c-debris",
        "lat": 64.9177386445724,
        "lon": 109.55457081435391,
        "alt_km": 886.3208513708751,
        "timestamp": "2025-12-06T11:28:11.348337+00:00",
        "meta_object_name": "FENGYUN 1C DEB",
        "meta_object_id": "1999-025CUU",
        "meta_epoch": "2025-12-05T16:24:25.007328",
        "meta_mean_motion": 14.08762004,
        "meta_eccentricity": 0.00945405,
        "meta_inclination": 98.3435,
        "meta_ra_of_asc_node": 127.0916,
        "meta_arg_of_pericenter": 312.942,
        "meta_mean_anomaly": 46.3848,
        "meta_ephemeris_type": 0,
        "meta_classification_type": "U",
        "meta_norad_cat_id": 32198,
        "meta_element_set_no": 999,
        "meta_rev_at_epoch": 56846,
        "meta_bstar": 0.0028001199,
        "meta_mean_motion_dot": 4.993e-05,
        "meta_mean_motion_ddot": 0,
        "tle_line1": "1 32198U 99025CUU 25339.68362277  .00004993  00000+0  28001-2 0  9998",
        "tle_line2": "2 32198  98.3435 127.0916 0094540 312.9420  46.3848 14.08762004568460"
      },
      "geometry": {
        "type": "Point",
        "coordinates": [
          109.55457081435391,
          64.9177386445724
        ]
      }
    },
    {
      "type": "Feature",
      "properties": {
        "norad_id": 32200,
        "name": "FENGYUN 1C DEB",
        "group": "fengyun-1c-debris",
        "lat": -2.3002071706888563,
        "lon": -150.82082604066503,
        "alt_km": 859.9058180187458,
        "timestamp": "2025-12-06T11:28:11.348347+00:00",
        "meta_object_name": "FENGYUN 1C DEB",
        "meta_object_id": "1999-025CUW",
        "meta_epoch": "2025-12-04T14:30:19.457568",
        "meta_mean_motion": 14.15649918,
        "meta_eccentricity": 0.0039263,
        "meta_inclination": 98.7917,
        "meta_ra_of_asc_node": 27.6877,
        "meta_arg_of_pericenter": 313.708,
        "meta_mean_anomaly": 46.0844,
        "meta_ephemeris_type": 0,
        "meta_classification_type": "U",
        "meta_norad_cat_id": 32200,
        "meta_element_set_no": 999,
        "meta_rev_at_epoch": 94248,
        "meta_bstar": 0.0018598,
        "meta_mean_motion_dot": 3.628e-05,
        "meta_mean_motion_ddot": 0,
        "tle_line1": "1 32200U 99025CUW 25338.60439187  .00003628  00000+0  18598-2 0  9992",
        "tle_line2": "2 32200  98.7917  27.6877 0039263 313.7080  46.0844 14.15649918942483"
      },
      "geometry": {
        "type": "Point",
        "coordinates": [
          -150.82082604066503,
          -2.3002071706888563
        ]
      }
    },
    {
      "type": "Feature",
      "properties": {
        "norad_id": 32203,
        "name": "FENGYUN 1C DEB",
        "group": "fengyun-1c-debris",
        "lat": 48.022971042234424,
        "lon": -135.65748390994412,
        "alt_km": 399.27415329014275,
        "timestamp": "2025-12-06T11:28:11.348357+00:00",
        "meta_object_name": "FENGYUN 1C DEB",
        "meta_object_id": "1999-025CUZ",
        "meta_epoch": "2025-12-05T22:47:03.706080",
        "meta_mean_motion": 15.39996052,
        "meta_eccentricity": 0.01464288,
        "meta_inclination": 97.0169,
        "meta_ra_of_asc_node": 231.7042,
        "meta_arg_of_pericenter": 116.0977,
        "meta_mean_anomaly": 245.5423,
        "meta_ephemeris_type": 0,
        "meta_classification_type": "U",
        "meta_norad_cat_id": 32203,
        "meta_element_set_no": 999,
        "meta_rev_at_epoch": 74993,
        "meta_bstar": 0.00090320436,
        "meta_mean_motion_dot": 0.00052975,
        "meta_mean_motion_ddot": 0,
        "tle_line1": "1 32203U 99025CUZ 25339.94934845  .00052975  00000+0  90320-3 0  9997",
        "tle_line2": "2 32203  97.0169 231.7042 0146428 116.0977 245.5423 15.39996052749935"
      },
      "geometry": {
        "type": "Point",
        "coordinates": [
          -135.65748390994412,
          48.022971042234424
        ]
      }
    },
    {
      "type": "Feature",
      "properties": {
        "norad_id": 32205,
        "name": "FENGYUN 1C DEB",
        "group": "fengyun-1c-debris",
        "lat": -15.422841012575406,
        "lon": 162.14529890147392,
        "alt_km": 854.0484988251419,
        "timestamp": "2025-12-06T11:28:11.348367+00:00",
        "meta_object_name": "FENGYUN 1C DEB",
        "meta_object_id": "1999-025CVB",
        "meta_epoch": "2025-12-03T18:51:38.525184",
        "meta_mean_motion": 14.13901782,
        "meta_eccentricity": 0.00102944,
        "meta_inclination": 98.6784,
        "meta_ra_of_asc_node": 341.9469,
        "meta_arg_of_pericenter": 319.7737,
        "meta_mean_anomaly": 220.8518,
        "meta_ephemeris_type": 0,
        "meta_classification_type": "U",
        "meta_norad_cat_id": 32205,
        "meta_element_set_no": 999,
        "meta_rev_at_epoch": 94371,
        "meta_bstar": 0.00024481357,
        "meta_mean_motion_dot": 4.22e-06,
        "meta_mean_motion_ddot": 0,
        "tle_line1": "1 32205U 99025CVB 25337.78586256  .00000422  00000+0  24481-3 0  9993",
        "tle_line2": "2 32205  98.6784 341.9469 0010294 319.7737 220.8518 14.13901782943711"
      },
      "geometry": {
        "type": "Point",
        "coordinates": [
          162.14529890147392,
          -15.422841012575406
        ]
      }
    },
    {
      "type": "Feature",
      "properties": {
        "norad_id": 32209,
        "name": "FENGYUN 1C DEB",
        "group": "fengyun-1c-debris",
        "lat": -41.396618352290574,
        "lon": 99.83764196831945,
        "alt_km": 1337.630334544714,
        "timestamp": "2025-12-06T11:28:11.348377+00:00",
        "meta_object_name": "FENGYUN 1C DEB",
        "meta_object_id": "1999-025CVF",
        "meta_epoch": "2025-12-01T19:52:12.211968",
        "meta_mean_motion": 13.47100658,
        "meta_eccentricity": 0.03328885,
        "meta_inclination": 99.4197,
        "meta_ra_of_asc_node": 283.8685,
        "meta_arg_of_pericenter": 52.3889,
        "meta_mean_anomaly": 310.6974,
        "meta_ephemeris_type": 0,
        "meta_classification_type": "U",
        "meta_norad_cat_id": 32209,
        "meta_element_set_no": 999,
        "meta_rev_at_epoch": 89829,
        "meta_bstar": 0.002968545,
        "meta_mean_motion_dot": 2.491e-05,
        "meta_mean_motion_ddot": 0,
        "tle_line1": "1 32209U 99025CVF 25335.82791912  .00002491  00000+0  29685-2 0  9995",
        "tle_line2": "2 32209  99.4197 283.8685 0332888  52.3889 310.6974 13.47100658898295"
      },
      "geometry": {
        "type": "Point",
        "coordinates": [
          99.83764196831945,
          -41.396618352290574
        ]
      }
    },
    {
      "type": "Feature",
      "properties": {
        "norad_id": 32212,
        "name": "FENGYUN 1C DEB",
        "group": "fengyun-1c-debris",
        "lat": 62.520343287963186,
        "lon": -84.63327796496232,
        "alt_km": 658.5263757192106,
        "timestamp": "2025-12-06T11:28:11.348387+00:00",
        "meta_object_name": "FENGYUN 1C DEB",
        "meta_object_id": "1999-025CVJ",
        "meta_epoch": "2025-11-25T13:14:33.862848",
        "meta_mean_motion": 14.40232074,
        "meta_eccentricity": 0.01375663,
        "meta_inclination": 99.574,
        "meta_ra_of_asc_node": 64.2206,
        "meta_arg_of_pericenter": 128.3819,
        "meta_mean_anomaly": 247.3372,
        "meta_ephemeris_type": 0,
        "meta_classification_type": "U",
        "meta_norad_cat_id": 32212,
        "meta_element_set_no": 999,
        "meta_rev_at_epoch": 95814,
        "meta_bstar": 0.00072151174,
        "meta_mean_motion_dot": 2.496e-05,
        "meta_mean_motion_ddot": 0,
        "tle_line1": "1 32212U 99025CVJ 25329.55178082  .00002496  00000+0  72151-3 0  9991",
        "tle_line2": "2 32212  99.5740  64.2206 0137566 128.3819 247.3372 14.40232074958148"
      },
      "geometry": {
        "type": "Point",
        "coordinates": [
          -84.63327796496232,
          62.520343287963186
        ]
      }
    }
  ]
}